[{"OBJECT_NAME":"STARLINK-31415","OBJECT_ID":"2024-064X","EPOCH":"2026-03-09T09:06:37.998144","MEAN_MOTION":15.27551982,"ECCENTRICITY":0.00016163,"INCLINATION":43.0031,"RA_OF_ASC_NODE":58.3276,"ARG_OF_PERICENTER":276.0398,"MEAN_ANOMALY":84.0269,"EPHEMERIS_TYPE":0,"CLASSIFICATION_TYPE":"U","NORAD_CAT_ID":59419,"ELEMENT_SET_NO":999,"REV_AT_EPOCH":10917,"BSTAR":-0.00011879545,"MEAN_MOTION_DOT":-3.527e-5,"MEAN_MOTION_DDOT":0},{"OBJECT_NAME":"TRANSPORTER-12 OBJECT BT","OBJECT_ID":"2025-009BT","EPOCH":"2026-03-09T17:08:24.281088","MEAN_MOTION":15.27872239,"ECCENTRICITY":0.00036816,"INCLINATION":97.4094,"RA_OF_ASC_NODE":151.5992,"ARG_OF_PERICENTER":313.5044,"MEAN_ANOMALY":46.5889,"EPHEMERIS_TYPE":0,"CLASSIFICATION_TYPE":"U","NORAD_CAT_ID":62674,"ELEMENT_SET_NO":999,"REV_AT_EPOCH":12136,"BSTAR":0.000510288,"MEAN_MOTION_DOT":0.00013824,"MEAN_MOTION_DDOT":0}]
