STARLINK-31415          
1 59419U 24064X   26068.37960646 -.00003527  00000+0 -11880-3 0  9996
2 59419  43.0031  58.3276 0001616 276.0398  84.0269 15.27551982109173
TRANSPORTER-12 OBJECT BT
1 62674U 25009BT  26068.71416991  .00013824  00000+0  51029-3 0  9998
2 62674  97.4094 151.5992 0003682 313.5044  46.5889 15.27872239121360
